WFOV (USA 332)          
1 52940U 22073A   22293.72786706 -.00000358  00000+0  00000+0 0  9990
2 52940   0.2634  99.8317 0001772 187.7366 122.9418  1.00270795   973
RECURVE                 
1 52944U 22074A   22294.11465910  .00010124  00000+0  41042-3 0  9996
2 52944  45.0004 236.0984 0001823 203.1017 156.9783 15.24892871 16901
NACHOS-2                
1 52945U 22074B   22294.23564715  .00012067  00000+0  48419-3 0  9996
2 52945  45.0039 235.2718 0002233 193.2507 166.8294 15.25079913 16929
SLINGSHOT 1             
1 52947U 22074D   22294.06619227  .00010565  00000+0  41962-3 0  9995
2 52947  44.9872 235.7076 0003819 145.5157 214.5973 15.25536587 16906
MISR-B-1                
1 52949U 22074F   22293.86463601  .00023865  00000+0  90901-3 0  9991
2 52949  44.9873 236.7703 0005172 168.8369 191.2629 15.26362136 16877
CTIM                    
1 52950U 22074G   22294.26063427  .00017608  00000+0  67712-3 0  9992
2 52950  45.0345 234.7501 0004235 173.5645 186.5293 15.26223058 16938
GUNSMOKE-L              
1 52951U 22074H   22293.88924924  .00018663  00000+0  72617-3 0  9990
2 52951  44.9807 236.8373 0003390 179.3007 180.7850 15.25795328 16878
COSMOS 2557 [GLONASS-K] 
1 52984U 22075A   22294.15268054 -.00000065  00000+0  10000-3 0  9999
2 52984  64.8110   1.1466 0012274 276.4750 153.9214  2.13101899  2253
STARLINK-4260           
1 52986U 22076A   22294.25001157  .00049195  00000+0  30893-2 0  9999
2 52986  53.2144 240.2364 0002012  43.8834 219.1368 15.08820014 16801
STARLINK-4259           
1 52987U 22076B   22294.25001157  .00028600  00000+0  18089-2 0  9991
2 52987  53.2168 250.2337 0002184  35.3397  12.6573 15.08816995 16660
STARLINK-4291           
1 52988U 22076C   22294.58334491 -.00001097  00000+0 -50828-4 0  9990
2 52988  53.2167 238.7364 0001929  37.2949 257.2967 15.08844553 16857
STARLINK-4293           
1 52989U 22076D   22294.25001157  .00023853  00000+0  15123-2 0  9994
2 52989  53.2172 250.2326 0002377  29.3135  38.6687 15.08825467 16660
STARLINK-4286           
1 52990U 22076E   22293.91667824  .00021285  00000+0  13519-2 0  9991
2 52990  53.2162 251.7226 0002047  41.7681  34.6323 15.08826092  1307
STARLINK-4285           
1 52991U 22076F   22294.25001157 -.00008980  00000+0 -54686-3 0  9991
2 52991  53.2169 250.2290 0002024  37.0811  70.9266 15.08833538 16676
STARLINK-4269           
1 52992U 22076G   22293.91667824  .00000622  00000+0  57159-4 0  9995
2 52992  53.2174 251.7246 0002185  43.1241  73.2867 15.08841094  1306
STARLINK-4264           
1 52993U 22076H   22294.58334491 -.00004675  00000+0 -27578-3 0  9996
2 52993  53.2170 238.7348 0002090  36.1699 278.4211 15.08845243 16853
STARLINK-4256           
1 52994U 22076J   22293.91667824  .00007205  00000+0  47029-3 0  9995
2 52994  53.2155 241.7258 0002170  39.6312 271.7507 15.08840048  1306
STARLINK-4296           
1 52995U 22076K   22293.91667824  .00008443  00000+0  54798-3 0  9992
2 52995  53.2149 241.7204 0002346  34.4551 316.9429 15.08837553 16751
STARLINK-4295           
1 52996U 22076L   22294.58334491 -.00003275  00000+0 -18775-3 0  9993
2 52996  53.2162 238.7318 0002040  39.0471 315.5415 15.08834846 16855
STARLINK-4301           
1 52997U 22076M   22294.25001157  .00037498  00000+0  23634-2 0  9999
2 52997  53.2144 240.2221 0002092  38.6239  24.3953 15.08812039 16808
STARLINK-4254           
1 52998U 22076N   22294.25001157  .00007692  00000+0  50081-3 0  9990
2 52998  53.2164 240.2316 0001602  55.0316 322.7589 15.08840800 16808
STARLINK-4217           
1 52999U 22076P   22294.25001157  .00024024  00000+0  15234-2 0  9999
2 52999  53.2153 240.2128 0001573  65.2343  37.7734 15.08816262 16819
STARLINK-4194           
1 53000U 22076Q   22294.25001157  .00001872  00000+0  13571-3 0  9992
2 53000  53.2162 240.2300 0002193  32.1164 350.8944 15.08834491 16803
STARLINK-4190           
1 53001U 22076R   22294.25001157 -.00005804  00000+0 -34682-3 0  9990
2 53001  53.2169 240.2131 0001479  63.7448  59.2534 15.08843631 16816
STARLINK-4121           
1 53002U 22076S   22293.91667824  .00005973  00000+0  39297-3 0  9994
2 53002  53.2158 241.7223 0001824  42.9322 348.4494 15.08847204  1303
STARLINK-4255           
1 53003U 22076T   22294.25001157 -.00004563  00000+0 -26873-3 0  9996
2 53003  53.2174 240.2118 0001440  62.6305 100.3619 15.08843966 16810
STARLINK-4253           
1 53004U 22076U   22294.25001157  .00008018  00000+0  52163-3 0  9995
2 53004  53.2153 240.2176 0001554  50.8736  32.2419 15.08816431 16802
STARLINK-4288           
1 53005U 22076V   22294.25001157  .00045628  00000+0  28685-2 0  9995
2 53005  53.2162 240.2111 0001504  61.9532 121.0716 15.08814640 16812
STARLINK-4290           
1 53006U 22076W   22294.25001157  .00023032  00000+0  14613-2 0  9997
2 53006  53.2174 240.2130 0001654  47.0161  95.9869 15.08818778 16810
STARLINK-4215           
1 53007U 22076X   22294.25001157  .00036002  00000+0  22699-2 0  9992
2 53007  53.2165 240.2116 0001651  53.3498 169.6571 15.08819120 16816
STARLINK-4275           
1 53008U 22076Y   22294.58334491 -.00001610  00000+0 -83096-4 0  9998
2 53008  53.2172 238.7153 0001544  66.2438 143.1342 15.08843943 16864
STARLINK-4277           
1 53009U 22076Z   22294.25001157  .00028548  00000+0  18052-2 0  9998
2 53009  53.2155 230.2261 0001556  58.9877 239.0008 15.08827145 16940
STARLINK-4263           
1 53010U 22076AA  22293.91667824  .00008820  00000+0  57150-3 0  9995
2 53010  53.2168 241.7070 0001961  44.9663 146.4205 15.08845570  1305
STARLINK-4265           
1 53011U 22076AB  22294.58334491  .00015246  00000+0  97419-3 0  9993
2 53011  53.2169 228.7295 0001393  59.5315 270.0667 15.08830953 16992
STARLINK-4271           
1 53012U 22076AC  22294.25001157 -.00004893  00000+0 -28948-3 0  9997
2 53012  53.2177 240.2170 0001797  44.1115 198.8905 15.08846688 16814
STARLINK-4177           
1 53013U 22076AD  22294.58334491  .00011924  00000+0  76604-3 0  9997
2 53013  53.2180 228.7301 0001281  62.6675 306.9236 15.08839410 16993
STARLINK-4183           
1 53014U 22076AE  22294.58334491  .00015224  00000+0  97286-3 0  9994
2 53014  53.2149 228.7274 0001327  73.5430 216.0492 15.08829198 16996
STARLINK-4262           
1 53015U 22076AF  22294.58334491  .00015485  00000+0  98918-3 0  9997
2 53015  53.2174 228.7280 0001636  49.1604   0.4314 15.08829084 16999
STARLINK-4283           
1 53016U 22076AG  22293.91667824 -.00001671  00000+0 -86905-4 0  9991
2 53016  53.2179 231.7232 0001710  43.7324 282.6362 15.08852408 16890
STARLINK-4281           
1 53017U 22076AH  22293.91667824 -.00002077  00000+0 -11244-3 0  9996
2 53017  53.2162 231.7190 0001517  62.8602 343.5202 15.08847790 16890
STARLINK-4279           
1 53018U 22076AJ  22294.58334491 -.00035663  00000+0 -22335-2 0  9991
2 53018  53.2174 228.7296 0001624  48.8049 315.6293 15.08844257 16991
STARLINK-4282           
1 53019U 22076AK  22294.25001157  .00016337  00000+0  10427-2 0  9990
2 53019  53.2167 230.2139 0001804  50.6904  47.3256 15.08821456 16959
STARLINK-4287           
1 53020U 22076AL  22294.25001157  .00053480  00000+0  33559-2 0  9993
2 53020  53.2166 230.2260 0001498  60.5060 317.4807 15.08808417 16941
STARLINK-4203           
1 53021U 22076AM  22294.58334491  .00016782  00000+0  10702-2 0  9999
2 53021  53.2162 228.7131 0001386  54.4250  95.1762 15.08833224 17008
STARLINK-4216           
1 53022U 22076AN  22294.58334491  .00016055  00000+0  10246-2 0  9996
2 53022  53.2164 228.7262 0001773  53.8443  35.7275 15.08836589 16996
STARLINK-4284           
1 53023U 22076AP  22294.25001157  .00058427  00000+0  36623-2 0  9997
2 53023  53.2160 230.2115 0001539  58.8997 113.9080 15.08806565 16957
STARLINK-4289           
1 53024U 22076AQ  22293.91667824 -.00005270  00000+0 -31327-3 0  9996
2 53024  53.2158 231.7061 0001482  62.4027  83.9796 15.08839197 16905
STARLINK-4218           
1 53025U 22076AR  22294.25001157  .00023314  00000+0  14785-2 0  9991
2 53025  53.2169 230.2113 0001785  48.7407 149.2417 15.08829551 16959
STARLINK-4119           
1 53026U 22076AS  22294.25001157  .00053190  00000+0  33383-2 0  9992
2 53026  53.2156 230.2130 0001791  47.4450  70.5447 15.08804073 16957
STARLINK-4158           
1 53027U 22076AT  22293.91667824 -.00002031  00000+0 -10954-3 0  9994
2 53027  53.2193 231.6934 0001431  88.5292 157.8515 15.08851194  1301
STARLINK-4161           
1 53028U 22076AU  22294.25001157  .00177110  00000+0  72642-3 0  9995
2 53028  53.2108 214.1169 0005073 122.3077 111.1491 15.85006813 17171
STARLINK-4143           
1 53029U 22076AV  22294.25001157 -.01056871  00000+0 -50510-1 0  9997
2 53029  53.2173 220.5087 0001379  86.2591 118.2418 15.21579865 17087
STARLINK-4160           
1 53030U 22076AW  22293.91667824 -.00043800  00000+0 -27495-2 0  9994
2 53030  53.2156 231.7045 0001505  86.9793 119.4300 15.08856279  1303
STARLINK-4137           
1 53031U 22076AX  22294.58334491 -.01061858  00000+0 -50577-1 0  9990
2 53031  53.2175 218.9939 0001292  76.0972 197.4529 15.21709017 17135
STARLINK-4115           
1 53032U 22076AY  22294.58334491  .00000785  00000+0  67438-4 0  9997
2 53032  53.2169 228.7105 0001397  72.4654 177.1205 15.08830346 17003
STARLINK-4167           
1 53033U 22076AZ  22294.25001157 -.01057373  00000+0 -49659-1 0  9992
2 53033  53.2173 220.5192 0001377  77.5508 154.7805 15.22170711 17081
STARLINK-4151           
1 53034U 22076BA  22294.25001157 -.01057043  00000+0 -50079-1 0  9995
2 53034  53.2173 220.5139 0001386  79.0661 139.4189 15.21875250 17062
STARLINK-4157           
1 53035U 22076BB  22294.25001157 -.01058243  00000+0 -48838-1 0  9999
2 53035  53.2173 220.5292 0001332  77.4706 182.1404 15.22761761 17074
STARLINK-4155           
1 53036U 22076BC  22294.58334491 -.01062368  00000+0 -49725-1 0  9995
2 53036  53.2175 219.0032 0001262  69.5529 231.7107 15.22299694 17127
